ONEWEB-0168             
1 48068U 21025AC  23274.13753517  .00000389  00000+0  10302-2 0  9993
2 48068  87.8984 157.2287 0001610  78.6142 281.5168 13.13469738123596
ONEWEB-0173             
1 48069U 21025AD  23274.43589499  .00000329  00000+0  86700-3 0  9993
2 48069  87.8986 157.1847 0001620  57.1845 302.9440 13.13470676123878
ONEWEB-0171             
1 48070U 21025AE  23274.16503929 -.00000130  00000+0 -39062-3 0  9990
2 48070  87.9054 157.2249 0001814  68.1431 291.9891 13.13471931123650
ONEWEB-0172             
1 48071U 21025AF  23273.38527745  .00000050  00000+0  10072-3 0  9995
2 48071  87.9057 157.3487 0001800  63.5257 296.6057 13.13471831124442
ONEWEB-0174             
1 48072U 21025AG  23274.20525991  .00000354  00000+0  93419-3 0  9992
2 48072  87.9054 157.2016 0001507  82.3522 277.7778 13.13467636123879
ONEWEB-0175             
1 48073U 21025AH  23274.38511177 -.00000100  00000+0 -30781-3 0  9997
2 48073  87.9059 157.1595 0002137  67.5471 292.5885 13.13469561123552
ONEWEB-0177             
1 48074U 21025AJ  23274.16925715 -.00000462  00000+0 -12993-2 0  9996
2 48074  87.9061 157.2054 0001386  57.7723 302.3541 13.13470444123712
ONEWEB-0178             
1 48075U 21025AK  23274.18726400  .00000105  00000+0  25358-3 0  9991
2 48075  87.9055 157.2084 0001503  68.8954 291.2336 13.13470807123765
